OBJECT_NAME,OBJECT_ID,EPOCH,MEAN_MOTION,ECCENTRICITY,INCLINATION,RA_OF_ASC_NODE,ARG_OF_PERICENTER,MEAN_ANOMALY,EPHEMERIS_TYPE,CLASSIFICATION_TYPE,NORAD_CAT_ID,ELEMENT_SET_NO,REV_AT_EPOCH,BSTAR,MEAN_MOTION_DOT,MEAN_MOTION_DDOT
GSAT-7,2013-044B,2026-06-06T13:49:25.709664,1.00270949,.00029613,0.0579,101.5927,190.2926,244.4659,0,U,39234,999,4515,0,-.63E-6,0
AMOS-4,2013-045A,2026-06-06T03:30:54.583776,1.00273002,.0002637,0.0200,85.7454,325.8315,320.7286,0,U,39237,999,4684,0,.2E-6,0
AEHF-3 (USA 246),2013-050A,2026-06-06T10:04:38.705952,1.00269905,.00878249,5.2681,67.2798,188.0751,26.3744,0,U,39256,999,4554,0,.42E-6,0
ASTRA 2E,2013-056A,2026-06-06T15:32:01.701024,1.00272941,.00026489,0.0698,319.3028,124.7717,72.5020,0,U,39285,999,4631,0,.164E-5,0
FM-6,2013-058A,2026-06-06T12:55:12.282240,1.00277692,.00036109,0.0130,46.8915,120.7199,164.8349,0,U,39360,999,4596,0,-.4E-7,0
RADUGA-1M 3,2013-062A,2026-06-04T17:56:00.523392,1.00274022,.00015788,5.9262,72.5137,274.5230,210.1480,0,U,39375,999,4598,0,.164E-5,0
SES-8,2013-071A,2026-06-06T14:02:54.100896,1.00272106,.00029294,0.0114,298.5880,142.9552,119.1947,0,U,39460,999,4432,0,-.256E-5,0
INMARSAT 5-F1,2013-073A,2026-06-06T13:46:11.021088,1.00269785,.00008077,0.0182,358.0139,351.5328,174.6258,0,U,39476,999,4547,0,.41E-6,0
TKSAT-1 (TUPAC KATARI),2013-075A,2026-06-06T13:03:26.491968,1.00272975,.00027204,0.0346,179.4391,247.4492,296.7463,0,U,39481,999,4549,0,-.182E-5,0
EXPRESS-AM5,2013-077A,2026-06-05T22:44:17.411136,1.00269992,.00006637,0.0150,282.3642,75.1222,17.9923,0,U,39487,999,4624,0,-.267E-5,0
GSAT-14,2014-001A,2026-06-06T13:49:25.709664,1.00269305,.00008479,0.0106,336.1576,319.4525,240.7376,0,U,39498,999,4527,0,0,0
THAICOM 6,2014-002A,2026-06-06T13:50:48.078240,1.00270095,.0004598,0.0787,107.1644,354.8426,79.1959,0,U,39500,999,4535,0,-.107E-5,0
TDRS 12,2014-004A,2026-06-06T11:33:58.166208,1.00271182,.00026277,3.9663,18.9046,197.4780,171.1256,0,U,39504,999,4417,0,-.258E-5,0
ABS-2,2014-006A,2026-06-06T14:12:33.126048,1.00271779,.00042415,0.0225,60.1931,3.0480,119.8381,0,U,39508,999,4517,0,-.73E-6,0
ATHENA-FIDUS,2014-006B,2026-06-06T13:39:04.203360,1.00269999,.00015353,0.0381,98.7461,348.5683,50.2491,0,U,39509,999,4498,0,.167E-5,0
TURKSAT 4A,2014-007A,2026-06-06T13:40:19.082784,1.00269619,.00014309,0.0584,291.4246,41.0206,169.6307,0,U,39522,999,4486,0,.16E-5,0
EXPRESS-AT1,2014-010A,2026-06-06T13:45:48.557088,1.00301697,.00038448,0.2299,85.8228,32.9780,43.7960,0,U,39612,999,4471,0,.48E-6,0
EXPRESS-AT2,2014-010B,2026-06-06T13:44:18.700224,1.00273406,.00003094,0.0163,303.0271,80.6261,133.4140,0,U,39613,999,4439,0,.92E-6,0
AMAZONAS 4A,2014-011A,2026-06-06T13:07:11.132832,1.00274232,.0003885,0.0671,207.5113,255.4423,274.7910,0,U,39616,999,4460,0,-.239E-5,0
ASTRA 5B,2014-011B,2026-06-06T13:35:04.585920,1.00269454,.00022236,0.0595,315.2784,107.5370,59.4508,0,U,39617,999,4456,0,.15E-5,0
IRNSS-1B,2014-017A,2026-05-19T20:39:38.653920,1.00280229,.00242269,28.9733,240.8911,185.2284,176.5740,0,U,39635,999,4451,0,.103E-5,0
LUCH-5V,2014-023A,2026-06-06T04:58:38.897760,1.00268523,.0002802,5.1060,69.8596,28.7178,325.4279,0,U,39727,999,4424,0,-.255E-5,0
KAZSAT-3,2014-023B,2026-06-06T12:02:20.984928,1.00271799,.00001423,0.0301,57.1067,59.4395,17.4567,0,U,39728,999,4235,0,.74E-6,0
EUTELSAT 3B,2014-030A,2026-06-06T08:21:12.185280,1.00272381,.00041233,0.0609,351.0853,85.9962,306.0871,0,U,39773,999,4395,0,.33E-6,0
ASIASAT 8 (AMOS-7),2014-046A,2026-06-06T13:58:20.963712,1.00272529,.00016001,0.0158,291.1471,140.7153,138.0519,0,U,40107,999,10204,0,-.32E-5,0
ASIASAT 6,2014-052A,2026-06-05T17:30:31.802400,1.00269615,.000102,0.0184,310.8041,141.3753,184.5165,0,U,40141,999,4296,0,-.349E-5,0
OPTUS 10,2014-054A,2026-06-05T16:54:52.970400,1.00270710,.0002088,0.0779,305.7094,129.1218,229.0227,0,U,40146,999,4291,0,-.135E-5,0
MEASAT-3B,2014-054B,2026-06-06T12:11:50.074944,1.00273242,.00031862,0.0421,40.1972,24.5853,104.5869,0,U,40147,999,4280,0,-.228E-5,0
HIMAWARI-8,2014-060A,2026-06-06T14:08:27.494304,1.00271556,.00008901,0.0178,47.1068,48.8200,151.8697,0,U,40267,999,4265,0,-.262E-5,0
IRNSS-1C,2014-061A,2026-06-06T08:43:40.032192,1.00271038,.00225969,6.4911,89.1329,1.2266,18.3662,0,U,40269,999,4258,0,-.149E-5,0
INTELSAT 30 (IS-30),2014-062A,2026-06-06T09:13:59.304288,1.00269463,.00009967,0.0244,46.7427,357.6338,253.8489,0,U,40271,999,668,0,-.137E-5,0
ARSAT 1,2014-062B,2026-06-06T13:07:33.596832,1.00270826,.00019115,0.0407,62.7067,12.3480,305.0070,0,U,40272,999,4251,0,-.246E-5,0
