GSAT-7                  
1 39234U 13044B   26157.57599201 -.00000063  00000+0  00000+0 0  9990
2 39234   0.0579 101.5927 0002961 190.2926 244.4659  1.00270949 45157
AMOS-4                  
1 39237U 13045A   26157.14646509  .00000020  00000+0  00000+0 0  9993
2 39237   0.0200  85.7454 0002637 325.8315 320.7286  1.00273002 46841
AEHF-3 (USA 246)        
1 39256U 13050A   26157.41989243  .00000042  00000+0  00000+0 0  9999
2 39256   5.2681  67.2798 0087824 188.0751  26.3744  1.00269905 45543
ASTRA 2E                
1 39285U 13056A   26157.64724191  .00000164  00000+0  00000+0 0  9996
2 39285   0.0698 319.3028 0002648 124.7717  72.5020  1.00272941 46313
FM-6                    
1 39360U 13058A   26157.53833660 -.00000004  00000+0  00000+0 0  9996
2 39360   0.0130  46.8915 0003610 120.7199 164.8349  1.00277692 45962
RADUGA-1M 3             
1 39375U 13062A   26155.74722828  .00000164  00000+0  00000+0 0  9997
2 39375   5.9262  72.5137 0001578 274.5230 210.1480  1.00274022 45982
SES-8                   
1 39460U 13071A   26157.58534839 -.00000256  00000+0  00000+0 0  9992
2 39460   0.0114 298.5880 0002929 142.9552 119.1947  1.00272106 44324
INMARSAT 5-F1           
1 39476U 13073A   26157.57373867  .00000041  00000+0  00000+0 0  9993
2 39476   0.0182 358.0139 0000807 351.5328 174.6258  1.00269785 45474
TKSAT-1 (TUPAC KATARI)  
1 39481U 13075A   26157.54405662 -.00000182  00000+0  00000+0 0  9994
2 39481   0.0346 179.4391 0002720 247.4492 296.7463  1.00272975 45499
EXPRESS-AM5             
1 39487U 13077A   26156.94742374 -.00000267  00000+0  00000+0 0  9993
2 39487   0.0150 282.3642 0000663  75.1222  17.9923  1.00269992 46245
GSAT-14                 
1 39498U 14001A   26157.57599201  .00000000  00000+0  00000+0 0  9996
2 39498   0.0106 336.1576 0000847 319.4525 240.7376  1.00269305 45274
THAICOM 6               
1 39500U 14002A   26157.57694535 -.00000107  00000+0  00000+0 0  9996
2 39500   0.0787 107.1644 0004598 354.8426  79.1959  1.00270095 45353
TDRS 12                 
1 39504U 14004A   26157.48192322 -.00000258  00000+0  00000+0 0  9996
2 39504   3.9663  18.9046 0002627 197.4780 171.1256  1.00271182 44172
ABS-2                   
1 39508U 14006A   26157.59205007 -.00000073  00000+0  00000+0 0  9994
2 39508   0.0225  60.1931 0004241   3.0480 119.8381  1.00271779 45174
ATHENA-FIDUS            
1 39509U 14006B   26157.56879865  .00000167  00000+0  00000+0 0  9994
2 39509   0.0381  98.7461 0001535 348.5683  50.2491  1.00269999 44987
TURKSAT 4A              
1 39522U 14007A   26157.56966531  .00000160  00000+0  00000+0 0  9990
2 39522   0.0584 291.4246 0001430  41.0206 169.6307  1.00269619 44867
EXPRESS-AT1             
1 39612U 14010A   26157.57347867  .00000048  00000+0  00000+0 0  9995
2 39612   0.2299  85.8228 0003844  32.9780  43.7960  1.00301697 44718
EXPRESS-AT2             
1 39613U 14010B   26157.57243866  .00000092  00000+0  00000+0 0  9999
2 39613   0.0163 303.0271 0000309  80.6261 133.4140  1.00273406 44394
AMAZONAS 4A             
1 39616U 14011A   26157.54665663 -.00000239  00000+0  00000+0 0  9997
2 39616   0.0671 207.5113 0003885 255.4423 274.7910  1.00274232 44604
ASTRA 5B                
1 39617U 14011B   26157.56602530  .00000150  00000+0  00000+0 0  9995
2 39617   0.0595 315.2784 0002223 107.5370  59.4508  1.00269454 44560
IRNSS-1B                
1 39635U 14017A   26139.86086405  .00000103  00000+0  00000+0 0  9999
2 39635  28.9733 240.8911 0024226 185.2284 176.5740  1.00280229 44519
LUCH-5V                 
1 39727U 14023A   26157.20739465 -.00000255  00000+0  00000+0 0  9996
2 39727   5.1060  69.8596 0002802  28.7178 325.4279  1.00268523 44243
KAZSAT-3                
1 39728U 14023B   26157.50163177  .00000074  00000+0  00000+0 0  9999
2 39728   0.0301  57.1067 0000142  59.4395  17.4567  1.00271799 42353
EUTELSAT 3B             
1 39773U 14030A   26157.34805770  .00000033  00000+0  00000+0 0  9996
2 39773   0.0609 351.0853 0004123  85.9962 306.0871  1.00272381 43950
ASIASAT 8 (AMOS-7)      
1 40107U 14046A   26157.58218708 -.00000320  00000+0  00000+0 0  9991
2 40107   0.0158 291.1471 0001600 140.7153 138.0519  1.00272529102043
ASIASAT 6               
1 40141U 14052A   26156.72953475 -.00000349  00000+0  00000+0 0  9999
2 40141   0.0184 310.8041 0001020 141.3753 184.5165  1.00269615 42960
OPTUS 10                
1 40146U 14054A   26156.70477975 -.00000135  00000+0  00000+0 0  9993
2 40146   0.0779 305.7094 0002088 129.1218 229.0227  1.00270710 42918
MEASAT-3B               
1 40147U 14054B   26157.50821846 -.00000228  00000+0  00000+0 0  9996
2 40147   0.0421  40.1972 0003186  24.5853 104.5869  1.00273242 42801
HIMAWARI-8              
1 40267U 14060A   26157.58920711 -.00000262  00000+0  00000+0 0  9993
2 40267   0.0178  47.1068 0000890  48.8200 151.8697  1.00271556 42653
IRNSS-1C                
1 40269U 14061A   26157.36365778 -.00000149  00000+0  00000+0 0  9992
2 40269   6.4911  89.1329 0022596   1.2266  18.3662  1.00271038 42584
INTELSAT 30 (IS-30)     
1 40271U 14062A   26157.38471417 -.00000137  00000+0  00000+0 0  9993
2 40271   0.0244  46.7427 0000996 357.6338 253.8489  1.00269463  6685
ARSAT 1                 
1 40272U 14062B   26157.54691663 -.00000246  00000+0  00000+0 0  9990
2 40272   0.0407  62.7067 0001911  12.3480 305.0070  1.00270826 42519
